start=new Date('2022-04-23T00:00:00.000Z').valueOf();
sats=[{"PERIOD":"95.592","TLE_LINE1":"1 47404U 21005BH  22112.18621653  .00002213  00000-0  16743-3 0  9999","INCLINATION":"53.0552","RCS_SIZE":"LARGE","OBJECT_ID":"2021-005BH","MEAN_ELEMENT_THEORY":"SGP4","RA_OF_ASC_NODE":"275.0444","MEAN_MOTION":"15.06407153","APOAPSIS":"548.841","OBJECT_NAME":"STARLINK-2128","CLASSIFICATION_TYPE":"U","TLE_LINE2":"2 47404  53.0552 275.0444 0002381  51.2207 308.8995 15.06407153 69816","NORAD_CAT_ID":"47404","GP_ID":"201824529","FILE":"3411458","REF_FRAME":"TEME","PERIAPSIS":"545.543","MEAN_MOTION_DOT":"0.00002213","BSTAR":"0.00016743000000","LAUNCH_DATE":"2021-01-20","MEAN_MOTION_DDOT":"0.0000000000000","COUNTRY_CODE":"US","SITE":"AFETR","OBJECT_TYPE":"PAYLOAD","EPHEMERIS_TYPE":"0","ARG_OF_PERICENTER":"51.2207","TIME_SYSTEM":"UTC","SEMIMAJOR_AXIS":"6925.327","MEAN_ANOMALY":"308.8995","REV_AT_EPOCH":"6981","ELEMENT_SET_NO":"999","DECAY_DATE":null,"CENTER_NAME":"EARTH","EPOCH":"2022-04-22T04:28:09.108192","ECCENTRICITY":"0.00023810"},{"EPOCH":"2022-04-22T19:58:20.180928","ECCENTRICITY":"0.00014300","REV_AT_EPOCH":"6948","MEAN_ANOMALY":"295.4279","SEMIMAJOR_AXIS":"6925.328","TIME_SYSTEM":"UTC","CENTER_NAME":"EARTH","DECAY_DATE":null,"ELEMENT_SET_NO":"999","ARG_OF_PERICENTER":"64.6858","SITE":"AFETR","OBJECT_TYPE":"PAYLOAD","EPHEMERIS_TYPE":"0","COUNTRY_CODE":"US","MEAN_MOTION_DDOT":"0.0000000000000","LAUNCH_DATE":"2021-01-20","MEAN_MOTION_DOT":"0.00001540","PERIAPSIS":"546.203","BSTAR":"0.00012222000000","CLASSIFICATION_TYPE":"U","REF_FRAME":"TEME","FILE":"3411581","NORAD_CAT_ID":"47405","TLE_LINE2":"2 47405  53.0541 302.1333 0001430  64.6858 295.4279 15.06406731 69488","GP_ID":"201830210","OBJECT_ID":"2021-005BJ","OBJECT_NAME":"STARLINK-2130","APOAPSIS":"548.183","MEAN_MOTION":"15.06406731","RA_OF_ASC_NODE":"302.1333","MEAN_ELEMENT_THEORY":"SGP4","TLE_LINE1":"1 47405U 21005BJ  22112.83217802  .00001540  00000-0  12222-3 0  9999","PERIOD":"95.592","INCLINATION":"53.0541","RCS_SIZE":"LARGE"},{"RCS_SIZE":"LARGE","INCLINATION":"53.0560","PERIOD":"95.592","TLE_LINE1":"1 47406U 21005BK  22112.52901348  .00001155  00000-0  96445-4 0  9993","MEAN_ELEMENT_THEORY":"SGP4","RA_OF_ASC_NODE":"273.5043","APOAPSIS":"548.143","MEAN_MOTION":"15.06402566","OBJECT_NAME":"STARLINK-2133","OBJECT_ID":"2021-005BK","TLE_LINE2":"2 47406  53.0560 273.5043 0001353  86.7382 273.3762 15.06402566 69866","GP_ID":"201823528","NORAD_CAT_ID":"47406","FILE":"3411458","REF_FRAME":"TEME","CLASSIFICATION_TYPE":"U","BSTAR":"0.00009644500000","PERIAPSIS":"546.269","MEAN_MOTION_DOT":"0.00001155","LAUNCH_DATE":"2021-01-20","COUNTRY_CODE":"US","MEAN_MOTION_DDOT":"0.0000000000000","SITE":"AFETR","OBJECT_TYPE":"PAYLOAD","EPHEMERIS_TYPE":"0","ARG_OF_PERICENTER":"86.7382","ELEMENT_SET_NO":"999","DECAY_DATE":null,"CENTER_NAME":"EARTH","TIME_SYSTEM":"UTC","SEMIMAJOR_AXIS":"6925.341","MEAN_ANOMALY":"273.3762","REV_AT_EPOCH":"6986","ECCENTRICITY":"0.00013530","EPOCH":"2022-04-22T12:41:46.764672"},{"RCS_SIZE":"LARGE","INCLINATION":"53.0534","TLE_LINE1":"1 47407U 21005BL  22112.53637811 -.00001041  00000-0 -50950-4 0  9993","PERIOD":"95.592","OBJECT_NAME":"STARLINK-2134","MEAN_MOTION":"15.06404030","APOAPSIS":"548.468","RA_OF_ASC_NODE":"273.4740","MEAN_ELEMENT_THEORY":"SGP4","OBJECT_ID":"2021-005BL","REF_FRAME":"TEME","FILE":"3411458","NORAD_CAT_ID":"47407","TLE_LINE2":"2 47407  53.0534 273.4740 0001829  49.5710 310.5438 15.06404030 69863","GP_ID":"201823778","CLASSIFICATION_TYPE":"U","BSTAR":"-0.00005095000000","MEAN_MOTION_DOT":"-0.00001041","PERIAPSIS":"545.935","MEAN_MOTION_DDOT":"0.0000000000000","COUNTRY_CODE":"US","LAUNCH_DATE":"2021-01-20","ARG_OF_PERICENTER":"49.5710","EPHEMERIS_TYPE":"0","SITE":"AFETR","OBJECT_TYPE":"PAYLOAD","CENTER_NAME":"EARTH","DECAY_DATE":null,"ELEMENT_SET_NO":"999","REV_AT_EPOCH":"6986","MEAN_ANOMALY":"310.5438","TIME_SYSTEM":"UTC","SEMIMAJOR_AXIS":"6925.336","ECCENTRICITY":"0.00018290","EPOCH":"2022-04-22T12:52:23.068704"},{"MEAN_MOTION_DOT":"-0.00000367","PERIAPSIS":"546.064","BSTAR":"-0.00000571220000","CLASSIFICATION_TYPE":"U","REF_FRAME":"TEME","TLE_LINE2":"2 47408  53.0550 273.6053 0001665  66.9971 293.1194 15.06398756 69863","NORAD_CAT_ID":"47408","GP_ID":"201824030","FILE":"3411458","OBJECT_ID":"2021-005BM","MEAN_MOTION":"15.06398756","APOAPSIS":"548.370","OBJECT_NAME":"STARLINK-2135","MEAN_ELEMENT_THEORY":"SGP4","RA_OF_ASC_NODE":"273.6053","TLE_LINE1":"1 47408U 21005BM  22112.50689927 -.00000367  00000-0 -57122-5 0  9995","PERIOD":"95.592","INCLINATION":"53.0550","RCS_SIZE":"LARGE","EPOCH":"2022-04-22T12:09:56.096928","ECCENTRICITY":"0.00016650","MEAN_ANOMALY":"293.1194","REV_AT_EPOCH":"6986","TIME_SYSTEM":"UTC","SEMIMAJOR_AXIS":"6925.352","DECAY_DATE":null,"CENTER_NAME":"EARTH","ELEMENT_SET_NO":"999","SITE":"AFETR","EPHEMERIS_TYPE":"0","OBJECT_TYPE":"PAYLOAD","ARG_OF_PERICENTER":"66.9971","LAUNCH_DATE":"2021-01-20","COUNTRY_CODE":"US","MEAN_MOTION_DDOT":"0.0000000000000"},{"ECCENTRICITY":"0.00016890","EPOCH":"2022-04-22T12:17:53.761920","DECAY_DATE":null,"CENTER_NAME":"EARTH","ELEMENT_SET_NO":"999","MEAN_ANOMALY":"293.8147","REV_AT_EPOCH":"6733","SEMIMAJOR_AXIS":"6925.335","TIME_SYSTEM":"UTC","OBJECT_TYPE":"PAYLOAD","SITE":"AFETR","EPHEMERIS_TYPE":"0","ARG_OF_PERICENTER":"66.3019","LAUNCH_DATE":"2021-02-04","MEAN_MOTION_DDOT":"0.0000000000000","COUNTRY_CODE":"US","BSTAR":"0.00008504400000","MEAN_MOTION_DOT":"0.00000986","PERIAPSIS":"546.030","REF_FRAME":"TEME","TLE_LINE2":"2 47548  53.0549 253.5802 0001689  66.3019 293.8147 15.06404401 67338","GP_ID":"201824545","NORAD_CAT_ID":"47548","FILE":"3411458","CLASSIFICATION_TYPE":"U","APOAPSIS":"548.370","MEAN_MOTION":"15.06404401","OBJECT_NAME":"STARLINK-1782","MEAN_ELEMENT_THEORY":"SGP4","RA_OF_ASC_NODE":"253.5802","OBJECT_ID":"2021-009A","RCS_SIZE":"LARGE","INCLINATION":"53.0549","TLE_LINE1":"1 47548U 21009A   22112.51242780  .00000986  00000-0  85044-4 0  9995","PERIOD":"95.592"},{"LAUNCH_DATE":"2021-02-04","COUNTRY_CODE":"US","MEAN_MOTION_DDOT":"0.0000000000000","SITE":"AFETR","EPHEMERIS_TYPE":"0","OBJECT_TYPE":"PAYLOAD","ARG_OF_PERICENTER":"75.9867","ELEMENT_SET_NO":"999","DECAY_DATE":null,"CENTER_NAME":"EARTH","TIME_SYSTEM":"UTC","SEMIMAJOR_AXIS":"6925.353","MEAN_ANOMALY":"284.1301","REV_AT_EPOCH":"6733","ECCENTRICITY":"0.00016090","EPOCH":"2022-04-22T12:12:35.095392","RCS_SIZE":"LARGE","INCLINATION":"53.0542","PERIOD":"95.592","TLE_LINE1":"1 47549U 21009B   22112.50873953  .00000906  00000-0  79724-4 0  9997","MEAN_ELEMENT_THEORY":"SGP4","RA_OF_ASC_NODE":"253.5984","MEAN_MOTION":"15.06398584","APOAPSIS":"548.332","OBJECT_NAME":"STARLINK-1806","OBJECT_ID":"2021-009B","TLE_LINE2":"2 47549  53.0542 253.5984 0001609  75.9867 284.1301 15.06398584 67331","NORAD_CAT_ID":"47549","GP_ID":"201824795","FILE":"3411458","REF_FRAME":"TEME","CLASSIFICATION_TYPE":"U","BSTAR":"0.00007972400000","PERIAPSIS":"546.104","MEAN_MOTION_DOT":"0.00000906"},{"BSTAR":"0.00055341000000","PERIAPSIS":"546.002","MEAN_MOTION_DOT":"0.00007975","GP_ID":"201832223","TLE_LINE2":"2 47550  53.0522 242.3525 0001668  47.4814 312.6316 15.06418353 68127","NORAD_CAT_ID":"47550","FILE":"3411653","REF_FRAME":"TEME","CLASSIFICATION_TYPE":"U","MEAN_ELEMENT_THEORY":"SGP4","RA_OF_ASC_NODE":"242.3525","APOAPSIS":"548.312","MEAN_MOTION":"15.06418353","OBJECT_NAME":"STARLINK-1909","OBJECT_ID":"2021-009C","RCS_SIZE":"LARGE","INCLINATION":"53.0522","PERIOD":"95.591","TLE_LINE1":"1 47550U 21009C   22112.78610040  .00007975  00000-0  55341-3 0  9996","ECCENTRICITY":"0.00016680","EPOCH":"2022-04-22T18:51:59.074560","ELEMENT_SET_NO":"999","DECAY_DATE":null,"CENTER_NAME":"EARTH","TIME_SYSTEM":"UTC","SEMIMAJOR_AXIS":"6925.292","MEAN_ANOMALY":"312.6316","REV_AT_EPOCH":"6812","SITE":"AFETR","OBJECT_TYPE":"PAYLOAD","EPHEMERIS_TYPE":"0","ARG_OF_PERICENTER":"47.4814","LAUNCH_DATE":"2021-02-04","MEAN_MOTION_DDOT":"0.0000000000000","COUNTRY_CODE":"US"},{"INCLINATION":"53.0549","RCS_SIZE":"LARGE","TLE_LINE1":"1 47551U 21009D   22112.78058094  .00001663  00000-0  13055-3 0  9996","PERIOD":"95.592","OBJECT_NAME":"STARLINK-1938","APOAPSIS":"548.444","MEAN_MOTION":"15.06398288","RA_OF_ASC_NODE":"262.3779","MEAN_ELEMENT_THEORY":"SGP4","OBJECT_ID":"2021-009D","REF_FRAME":"TEME","FILE":"3411653","NORAD_CAT_ID":"47551","TLE_LINE2":"2 47551  53.0549 262.3779 0001769  54.1323 305.9830 15.06398288 67839","GP_ID":"201831953","CLASSIFICATION_TYPE":"U","BSTAR":"0.00013055000000","MEAN_MOTION_DOT":"0.00001663","PERIAPSIS":"545.994","MEAN_MOTION_DDOT":"0.0000000000000","COUNTRY_CODE":"US","LAUNCH_DATE":"2021-02-04","ARG_OF_PERICENTER":"54.1323","SITE":"AFETR","OBJECT_TYPE":"PAYLOAD","EPHEMERIS_TYPE":"0","CENTER_NAME":"EARTH","DECAY_DATE":null,"ELEMENT_SET_NO":"999","REV_AT_EPOCH":"6783","MEAN_ANOMALY":"305.9830","SEMIMAJOR_AXIS":"6925.354","TIME_SYSTEM":"UTC","ECCENTRICITY":"0.00017690","EPOCH":"2022-04-22T18:44:02.193216"},{"INCLINATION":"53.0558","RCS_SIZE":"LARGE","TLE_LINE1":"1 47552U 21009E   22112.51980106  .00003421  00000-0  24844-3 0  9998","PERIOD":"95.592","OBJECT_NAME":"STARLINK-1940","APOAPSIS":"547.928","MEAN_MOTION":"15.06404333","RA_OF_ASC_NODE":"253.5442","MEAN_ELEMENT_THEORY":"SGP4","OBJECT_ID":"2021-009E","REF_FRAME":"TEME","FILE":"3411458","TLE_LINE2":"2 47552  53.0558 253.5442 0001051  64.4904 295.6194 15.06404333 67334","GP_ID":"201824046","NORAD_CAT_ID":"47552","CLASSIFICATION_TYPE":"U","BSTAR":"0.00024844000000","MEAN_MOTION_DOT":"0.00003421","PERIAPSIS":"546.472","MEAN_MOTION_DDOT":"0.0000000000000","COUNTRY_CODE":"US","LAUNCH_DATE":"2021-02-04","ARG_OF_PERICENTER":"64.4904","OBJECT_TYPE":"PAYLOAD","SITE":"AFETR","EPHEMERIS_TYPE":"0","CENTER_NAME":"EARTH","DECAY_DATE":null,"ELEMENT_SET_NO":"999","REV_AT_EPOCH":"6733","MEAN_ANOMALY":"295.6194","SEMIMAJOR_AXIS":"6925.335","TIME_SYSTEM":"UTC","ECCENTRICITY":"0.00010510","EPOCH":"2022-04-22T12:28:30.811584"}];
